{
    "links": {
        "self": "http://www.neowsapp.com/rest/v1/neo/3764834?api_key=iIulBulltgU6a56xZRHN4H3l9WmuAYTsLGpBGhQ2"
    },
    "id": "3764834",
    "neo_reference_id": "3764834",
    "name": "(2016 WO8)",
    "designation": "2016 WO8",
    "nasa_jpl_url": "http://ssd.jpl.nasa.gov/sbdb.cgi?sstr=3764834",
    "absolute_magnitude_h": 24.2,
    "estimated_diameter": {
        "kilometers": {
            "estimated_diameter_min": 0.0384197891,
            "estimated_diameter_max": 0.0859092601
        },
        "meters": {
            "estimated_diameter_min": 38.4197891064,
            "estimated_diameter_max": 85.9092601232
        },
        "miles": {
            "estimated_diameter_min": 0.0238729428,
            "estimated_diameter_max": 0.0533815229
        },
        "feet": {
            "estimated_diameter_min": 126.0491808919,
            "estimated_diameter_max": 281.8545369825
        }
    },
    "is_potentially_hazardous_asteroid": false,
    "close_approach_data": [
        {
            "close_approach_date": "2016-12-02",
            "close_approach_date_full": "2016-Dec-02 07:39",
            "epoch_date_close_approach": 1480664340000,
            "relative_velocity": {
                "kilometers_per_second": "7.6550582992",
                "kilometers_per_hour": "27558.2098769518",
                "miles_per_hour": "17123.599909376"
            },
            "miss_distance": {
                "astronomical": "0.0995011969",
                "lunar": "38.7059655941",
                "kilometers": "14885167.118690603",
                "miles": "9249213.9558042014"
            },
            "orbiting_body": "Earth"
        }
    ],
    "orbital_data": {
        "orbit_id": "6",
        "orbit_determination_date": "2017-04-06 08:21:51",
        "first_observation_date": "2016-11-25",
        "last_observation_date": "2016-12-20",
        "data_arc_in_days": 25,
        "observations_used": 38,
        "orbit_uncertainty": "8",
        "minimum_orbit_intersection": ".0859053",
        "jupiter_tisserand_invariant": "3.271",
        "epoch_osculation": "2457721.5",
        "eccentricity": ".5602224904296231",
        "semi_major_axis": "2.424277302797466",
        "inclination": "6.180470661225876",
        "ascending_node_longitude": "258.9929634000208",
        "orbital_period": "1378.706648968887",
        "perihelion_distance": "1.06614263473226",
        "perihelion_argument": "159.3603730829008",
        "aphelion_distance": "3.782411970862672",
        "perihelion_time": "2457716.448251867164",
        "mean_anomaly": "1.31908359851683",
        "mean_motion": ".2611142843687874",
        "equinox": "J2000",
        "orbit_class": {
            "orbit_class_type": "AMO",
            "orbit_class_description": "Near-Earth asteroid orbits similar to that of 1221 Amor",
            "orbit_class_range": "1.017 AU < q (perihelion) < 1.3 AU"
        }
    },
    "is_sentry_object": false
}